[{"OBJECT_NAME":"STARLINK-6090","OBJECT_ID":"2023-046C","EPOCH":"2026-03-09T22:00:01.999584","MEAN_MOTION":15.06479853,"ECCENTRICITY":0.00016264,"INCLINATION":43.0008,"RA_OF_ASC_NODE":157.9822,"ARG_OF_PERICENTER":282.1189,"MEAN_ANOMALY":56.0647,"EPHEMERIS_TYPE":0,"CLASSIFICATION_TYPE":"U","NORAD_CAT_ID":56095,"ELEMENT_SET_NO":999,"REV_AT_EPOCH":577,"BSTAR":0.00017997304,"MEAN_MOTION_DOT":2.492e-5,"MEAN_MOTION_DDOT":0},{"OBJECT_NAME":"OPS 6553","OBJECT_ID":"1982-041C","EPOCH":"2026-03-09T22:03:24.080544","MEAN_MOTION":15.05429153,"ECCENTRICITY":0.00081122,"INCLINATION":95.9935,"RA_OF_ASC_NODE":204.8515,"ARG_OF_PERICENTER":276.7874,"MEAN_ANOMALY":83.2434,"EPHEMERIS_TYPE":0,"CLASSIFICATION_TYPE":"U","NORAD_CAT_ID":13172,"ELEMENT_SET_NO":999,"REV_AT_EPOCH":10072,"BSTAR":0.00048705,"MEAN_MOTION_DOT":6.956e-5,"MEAN_MOTION_DDOT":0}]
